[
    {
        "Altitude(m)": 568688.9937280468,
        "Argument of Periapsis(deg)": 0.019868973332140504,
        "Eccentricity": 0.0,
        "Inclination(deg)": 53.0,
        "Latitude(deg)": -45.25762983826966,
        "Longitude(deg)": -111.51112631749731,
        "Mean Anomaly(deg)": 297.54757860273276,
        "RAAN(deg)": 39.97043010558405,
        "Satellite Name": "Starlink Shell 1 192",
        "Satellite Number": 192,
        "Semi-Major Axis(m)": 6931778.249405717,
        "Time(s)": 570
    },
    {
        "Altitude(m)": 568553.6674491949,
        "Argument of Periapsis(deg)": 0.02021755181165174,
        "Eccentricity": 0.0,
        "Inclination(deg)": 53.0,
        "Latitude(deg)": -44.92801642555288,
        "Longitude(deg)": -110.80159508358732,
        "Mean Anomaly(deg)": 298.1744098062895,
        "RAAN(deg)": 39.96991133550658,
        "Satellite Name": "Starlink Shell 1 192",
        "Satellite Number": 192,
        "Semi-Major Axis(m)": 6931778.249405717,
        "Time(s)": 580
    },
    {
        "Altitude(m)": 568416.1650392798,
        "Argument of Periapsis(deg)": 0.020566130291162974,
        "Eccentricity": 0.0,
        "Inclination(deg)": 53.0,
        "Latitude(deg)": -44.59349893026572,
        "Longitude(deg)": -110.1006447277535,
        "Mean Anomaly(deg)": 298.80124100984625,
        "RAAN(deg)": 39.969392565429104,
        "Satellite Name": "Starlink Shell 1 192",
        "Satellite Number": 192,
        "Semi-Major Axis(m)": 6931778.249405717,
        "Time(s)": 590
    },
    {
        "Altitude(m)": 568276.5406364033,
        "Argument of Periapsis(deg)": 0.020914708770674213,
        "Eccentricity": 0.0,
        "Inclination(deg)": 53.0,
        "Latitude(deg)": -44.254187827800614,
        "Longitude(deg)": -109.40820055088871,
        "Mean Anomaly(deg)": 299.4280722134029,
        "RAAN(deg)": 39.968873795351634,
        "Satellite Name": "Starlink Shell 1 192",
        "Satellite Number": 192,
        "Semi-Major Axis(m)": 6931778.249405717,
        "Time(s)": 600
    },
    {
        "Altitude(m)": 568134.8491757814,
        "Argument of Periapsis(deg)": 0.021263287250185448,
        "Eccentricity": 0.0,
        "Inclination(deg)": 53.0,
        "Latitude(deg)": -43.91019197324949,
        "Longitude(deg)": -108.72418238517778,
        "Mean Anomaly(deg)": 300.05490341695963,
        "RAAN(deg)": 39.968355025274164,
        "Satellite Name": "Starlink Shell 1 192",
        "Satellite Number": 192,
        "Semi-Major Axis(m)": 6931778.249405717,
        "Time(s)": 610
    },
    {
        "Altitude(m)": 567991.1463655912,
        "Argument of Periapsis(deg)": 0.021611865729696686,
        "Eccentricity": 0.0,
        "Inclination(deg)": 53.0,
        "Latitude(deg)": -43.56161855276143,
        "Longitude(deg)": -108.0485045382724,
        "Mean Anomaly(deg)": 300.68173462051635,
        "RAAN(deg)": 39.96783625519669,
        "Satellite Name": "Starlink Shell 1 192",
        "Satellite Number": 192,
        "Semi-Major Axis(m)": 6931778.249405717,
        "Time(s)": 620
    },
    {
        "Altitude(m)": 567845.4886624374,
        "Argument of Periapsis(deg)": 0.02196044420920792,
        "Eccentricity": 0.0,
        "Inclination(deg)": 53.0,
        "Latitude(deg)": -43.20857304209849,
        "Longitude(deg)": -107.38107740118542,
        "Mean Anomaly(deg)": 301.30856582407307,
        "RAAN(deg)": 39.96731748511922,
        "Satellite Name": "Starlink Shell 1 192",
        "Satellite Number": 192,
        "Semi-Major Axis(m)": 6931778.249405717,
        "Time(s)": 630
    },
    {
        "Altitude(m)": 567697.9332465028,
        "Argument of Periapsis(deg)": 0.02230902268871916,
        "Eccentricity": 0.0,
        "Inclination(deg)": 53.0,
        "Latitude(deg)": -42.85115917197584,
        "Longitude(deg)": -106.72180651698963,
        "Mean Anomaly(deg)": 301.93539702762973,
        "RAAN(deg)": 39.96679871504175,
        "Satellite Name": "Starlink Shell 1 192",
        "Satellite Number": 192,
        "Semi-Major Axis(m)": 6931778.249405717,
        "Time(s)": 640
    },
    {
        "Altitude(m)": 567548.5379963318,
        "Argument of Periapsis(deg)": 0.022657601168230398,
        "Eccentricity": 0.0,
        "Inclination(deg)": 53.0,
        "Latitude(deg)": -42.489478899769686,
        "Longitude(deg)": -106.07059415291822,
        "Mean Anomaly(deg)": 302.5622282311865,
        "RAAN(deg)": 39.96627994496426,
        "Satellite Name": "Starlink Shell 1 192",
        "Satellite Number": 192,
        "Semi-Major Axis(m)": 6931778.249405717,
        "Time(s)": 650
    },
    {
        "Altitude(m)": 567397.3614633157,
        "Argument of Periapsis(deg)": 0.023006179647741636,
        "Eccentricity": 0.0,
        "Inclination(deg)": 53.0,
        "Latitude(deg)": -42.1236323871894,
        "Longitude(deg)": -105.4273391732549,
        "Mean Anomaly(deg)": 303.18905943474323,
        "RAAN(deg)": 39.965761174886794,
        "Satellite Name": "Starlink Shell 1 192",
        "Satellite Number": 192,
        "Semi-Major Axis(m)": 6931778.249405717,
        "Time(s)": 660
    },
    {
        "Altitude(m)": 567244.4628458495,
        "Argument of Periapsis(deg)": 0.023354758127252868,
        "Eccentricity": 0.0,
        "Inclination(deg)": 53.0,
        "Latitude(deg)": -41.75371798351297,
        "Longitude(deg)": -104.79193689393603,
        "Mean Anomaly(deg)": 303.81589063829995,
        "RAAN(deg)": 39.96524240480932,
        "Satellite Name": "Starlink Shell 1 192",
        "Satellite Number": 192,
        "Semi-Major Axis(m)": 6931778.249405717,
        "Time(s)": 670
    },
    {
        "Altitude(m)": 567089.9019631867,
        "Argument of Periapsis(deg)": 0.023703336606764106,
        "Eccentricity": 0.0,
        "Inclination(deg)": 53.0,
        "Latitude(deg)": -41.37983221399671,
        "Longitude(deg)": -104.1642804318047,
        "Mean Anomaly(deg)": 304.4427218418566,
        "RAAN(deg)": 39.96472363473185,
        "Satellite Name": "Starlink Shell 1 192",
        "Satellite Number": 192,
        "Semi-Major Axis(m)": 6931778.249405717,
        "Time(s)": 680
    },
    {
        "Altitude(m)": 566933.7392290164,
        "Argument of Periapsis(deg)": 0.024051915086275345,
        "Eccentricity": 0.0,
        "Inclination(deg)": 53.0,
        "Latitude(deg)": -41.00206977308293,
        "Longitude(deg)": -103.54426052292793,
        "Mean Anomaly(deg)": 305.06955304541333,
        "RAAN(deg)": 39.96420486465438,
        "Satellite Name": "Starlink Shell 1 192",
        "Satellite Number": 192,
        "Semi-Major Axis(m)": 6931778.249405717,
        "Time(s)": 690
    },
    {
        "Altitude(m)": 566776.035624748,
        "Argument of Periapsis(deg)": 0.024400493565786583,
        "Eccentricity": 0.0,
        "Inclination(deg)": 53.0,
        "Latitude(deg)": -40.620523522040585,
        "Longitude(deg)": -102.9317653231059,
        "Mean Anomaly(deg)": 305.6963842489701,
        "RAAN(deg)": 39.9636860945769,
        "Satellite Name": "Starlink Shell 1 192",
        "Satellite Number": 192,
        "Semi-Major Axis(m)": 6931778.249405717,
        "Time(s)": 700
    },
    {
        "Altitude(m)": 566616.8526725245,
        "Argument of Periapsis(deg)": 0.024749072045297815,
        "Eccentricity": 0.0,
        "Inclination(deg)": 53.0,
        "Latitude(deg)": -40.23528449068683,
        "Longitude(deg)": -102.32668170377485,
        "Mean Anomaly(deg)": 306.32321545252677,
        "RAAN(deg)": 39.96316732449943,
        "Satellite Name": "Starlink Shell 1 192",
        "Satellite Number": 192,
        "Semi-Major Axis(m)": 6931778.249405717,
        "Time(s)": 710
    },
    {
        "Altitude(m)": 566456.2524079933,
        "Argument of Periapsis(deg)": 0.025097650524809053,
        "Eccentricity": 0.0,
        "Inclination(deg)": 53.0,
        "Latitude(deg)": -39.846441882854364,
        "Longitude(deg)": -101.72889501794282,
        "Mean Anomaly(deg)": 306.95004665608354,
        "RAAN(deg)": 39.96264855442196,
        "Satellite Name": "Starlink Shell 1 192",
        "Satellite Number": 192,
        "Semi-Major Axis(m)": 6931778.249405717,
        "Time(s)": 720
    },
    {
        "Altitude(m)": 566294.2973528093,
        "Argument of Periapsis(deg)": 0.02544622900432029,
        "Eccentricity": 0.0,
        "Inclination(deg)": 53.0,
        "Latitude(deg)": -39.45408308528398,
        "Longitude(deg)": -101.13828884948184,
        "Mean Anomaly(deg)": 307.5768778596402,
        "RAAN(deg)": 39.962129784344484,
        "Satellite Name": "Starlink Shell 1 192",
        "Satellite Number": 192,
        "Semi-Major Axis(m)": 6931778.249405717,
        "Time(s)": 730
    },
    {
        "Altitude(m)": 566131.0504869439,
        "Argument of Periapsis(deg)": 0.02579480748383153,
        "Eccentricity": 0.0,
        "Inclination(deg)": 53.0,
        "Latitude(deg)": -39.05829367963324,
        "Longitude(deg)": -100.55474625913746,
        "Mean Anomaly(deg)": 308.2037090631969,
        "RAAN(deg)": 39.961611014267014,
        "Satellite Name": "Starlink Shell 1 192",
        "Satellite Number": 192,
        "Semi-Major Axis(m)": 6931778.249405717,
        "Time(s)": 740
    },
    {
        "Altitude(m)": 565966.5752207168,
        "Argument of Periapsis(deg)": 0.026143385963342765,
        "Eccentricity": 0.0,
        "Inclination(deg)": 53.0,
        "Latitude(deg)": -38.6591574573147,
        "Longitude(deg)": -99.97814950203298,
        "Mean Anomaly(deg)": 308.83054026675364,
        "RAAN(deg)": 39.961092244189544,
        "Satellite Name": "Starlink Shell 1 192",
        "Satellite Number": 192,
        "Semi-Major Axis(m)": 6931778.249405717,
        "Time(s)": 750
    }
]